CCSDS_OMM_VERS = 2.0
CREATION_DATE  = 
ORIGINATOR     = 

OBJECT_NAME    = PROGRESS-MS 32
OBJECT_ID      = 2025-204A
CENTER_NAME    = EARTH
REF_FRAME      = TEME
TIME_SYSTEM    = UTC
MEAN_ELEMENT_THEORY = SGP/SGP4

EPOCH          = 2025-11-26T05:19:44.164416
MEAN_MOTION    = 15.49091452
ECCENTRICITY   = .00038201
INCLINATION    = 51.6311
RA_OF_ASC_NODE = 224.2419
ARG_OF_PERICENTER = 169.3460
MEAN_ANOMALY   = 190.7610

EPHEMERIS_TYPE = 0
CLASSIFICATION_TYPE = U
NORAD_CAT_ID   = 65586
ELEMENT_SET_NO = 999
REV_AT_EPOCH   = 27
BSTAR          = .20377242E-3
MEAN_MOTION_DOT = .10829E-3
MEAN_MOTION_DDOT = 0

CCSDS_OMM_VERS = 2.0
CREATION_DATE  = 
ORIGINATOR     = 

OBJECT_NAME    = CYGNUS NG-23
OBJECT_ID      = 2025-208A
CENTER_NAME    = EARTH
REF_FRAME      = TEME
TIME_SYSTEM    = UTC
MEAN_ELEMENT_THEORY = SGP/SGP4

EPOCH          = 2025-11-26T05:19:44.164416
MEAN_MOTION    = 15.49091452
ECCENTRICITY   = .00038201
INCLINATION    = 51.6311
RA_OF_ASC_NODE = 224.2419
ARG_OF_PERICENTER = 169.3460
MEAN_ANOMALY   = 190.7610

EPHEMERIS_TYPE = 0
CLASSIFICATION_TYPE = U
NORAD_CAT_ID   = 65616
ELEMENT_SET_NO = 999
REV_AT_EPOCH   = 22
BSTAR          = .20377242E-3
MEAN_MOTION_DOT = .10829E-3
MEAN_MOTION_DDOT = 0

CCSDS_OMM_VERS = 2.0
CREATION_DATE  = 
ORIGINATOR     = 

OBJECT_NAME    = DRAGONFLY
OBJECT_ID      = 1998-067XH
CENTER_NAME    = EARTH
REF_FRAME      = TEME
TIME_SYSTEM    = UTC
MEAN_ELEMENT_THEORY = SGP/SGP4

EPOCH          = 2025-11-26T16:29:11.724864
MEAN_MOTION    = 15.66389378
ECCENTRICITY   = .0006227
INCLINATION    = 51.6260
RA_OF_ASC_NODE = 217.5966
ARG_OF_PERICENTER = 186.0344
MEAN_ANOMALY   = 174.0577

EPHEMERIS_TYPE = 0
CLASSIFICATION_TYPE = U
NORAD_CAT_ID   = 65729
ELEMENT_SET_NO = 999
REV_AT_EPOCH   = 1064
BSTAR          = .12763E-2
MEAN_MOTION_DOT = .137012E-2
MEAN_MOTION_DDOT = 0

CCSDS_OMM_VERS = 2.0
CREATION_DATE  = 
ORIGINATOR     = 

OBJECT_NAME    = 1998-067XJ
OBJECT_ID      = 1998-067XJ
CENTER_NAME    = EARTH
REF_FRAME      = TEME
TIME_SYSTEM    = UTC
MEAN_ELEMENT_THEORY = SGP/SGP4

EPOCH          = 2025-11-26T02:18:28.515168
MEAN_MOTION    = 15.93800834
ECCENTRICITY   = .00123839
INCLINATION    = 51.6173
RA_OF_ASC_NODE = 216.5994
ARG_OF_PERICENTER = 189.8744
MEAN_ANOMALY   = 170.2022

EPHEMERIS_TYPE = 0
CLASSIFICATION_TYPE = U
NORAD_CAT_ID   = 65730
ELEMENT_SET_NO = 999
REV_AT_EPOCH   = 1060
BSTAR          = .26464428E-2
MEAN_MOTION_DOT = .989567E-2
MEAN_MOTION_DDOT = .44370244E-3

CCSDS_OMM_VERS = 2.0
CREATION_DATE  = 
ORIGINATOR     = 

OBJECT_NAME    = 1998-067XK
OBJECT_ID      = 1998-067XK
CENTER_NAME    = EARTH
REF_FRAME      = TEME
TIME_SYSTEM    = UTC
MEAN_ELEMENT_THEORY = SGP/SGP4

EPOCH          = 2025-11-26T16:41:03.975360
MEAN_MOTION    = 15.62309161
ECCENTRICITY   = .0005978
INCLINATION    = 51.6288
RA_OF_ASC_NODE = 218.4094
ARG_OF_PERICENTER = 160.1822
MEAN_ANOMALY   = 199.9405

EPHEMERIS_TYPE = 0
CLASSIFICATION_TYPE = U
NORAD_CAT_ID   = 65731
ELEMENT_SET_NO = 999
REV_AT_EPOCH   = 1063
BSTAR          = .98665E-3
MEAN_MOTION_DOT = .89423E-3
MEAN_MOTION_DDOT = 0

CCSDS_OMM_VERS = 2.0
CREATION_DATE  = 
ORIGINATOR     = 

OBJECT_NAME    = RSP-03
OBJECT_ID      = 1998-067XL
CENTER_NAME    = EARTH
REF_FRAME      = TEME
TIME_SYSTEM    = UTC
MEAN_ELEMENT_THEORY = SGP/SGP4

EPOCH          = 2025-11-26T18:54:54.153792
MEAN_MOTION    = 15.64263891
ECCENTRICITY   = .0006863
INCLINATION    = 51.6276
RA_OF_ASC_NODE = 217.5245
ARG_OF_PERICENTER = 162.7222
MEAN_ANOMALY   = 197.4007

EPHEMERIS_TYPE = 0
CLASSIFICATION_TYPE = U
NORAD_CAT_ID   = 65732
ELEMENT_SET_NO = 999
REV_AT_EPOCH   = 1066
BSTAR          = .11025E-2
MEAN_MOTION_DOT = .108268E-2
MEAN_MOTION_DDOT = 0

CCSDS_OMM_VERS = 2.0
CREATION_DATE  = 
ORIGINATOR     = 

OBJECT_NAME    = GHS-01
OBJECT_ID      = 1998-067XM
CENTER_NAME    = EARTH
REF_FRAME      = TEME
TIME_SYSTEM    = UTC
MEAN_ELEMENT_THEORY = SGP/SGP4

EPOCH          = 2025-11-26T17:23:22.382304
MEAN_MOTION    = 15.68051207
ECCENTRICITY   = .0006731
INCLINATION    = 51.6282
RA_OF_ASC_NODE = 217.1023
ARG_OF_PERICENTER = 183.7938
MEAN_ANOMALY   = 176.3009

EPHEMERIS_TYPE = 0
CLASSIFICATION_TYPE = U
NORAD_CAT_ID   = 65733
ELEMENT_SET_NO = 999
REV_AT_EPOCH   = 1066
BSTAR          = .14166E-2
MEAN_MOTION_DOT = .163321E-2
MEAN_MOTION_DDOT = 0

CCSDS_OMM_VERS = 2.0
CREATION_DATE  = 
ORIGINATOR     = 

OBJECT_NAME    = YOTSUBA-KULOVER
OBJECT_ID      = 1998-067XN
CENTER_NAME    = EARTH
REF_FRAME      = TEME
TIME_SYSTEM    = UTC
MEAN_ELEMENT_THEORY = SGP/SGP4

EPOCH          = 2025-11-26T02:24:40.528512
MEAN_MOTION    = 15.56841036
ECCENTRICITY   = .00024099
INCLINATION    = 51.6301
RA_OF_ASC_NODE = 223.4329
ARG_OF_PERICENTER = 132.1457
MEAN_ANOMALY   = 227.9740

EPHEMERIS_TYPE = 0
CLASSIFICATION_TYPE = U
NORAD_CAT_ID   = 65941
ELEMENT_SET_NO = 999
REV_AT_EPOCH   = 726
BSTAR          = .9028157E-3
MEAN_MOTION_DOT = .66108E-3
MEAN_MOTION_DDOT = 0

CCSDS_OMM_VERS = 2.0
CREATION_DATE  = 
ORIGINATOR     = 

OBJECT_NAME    = BOTAN
OBJECT_ID      = 1998-067XP
CENTER_NAME    = EARTH
REF_FRAME      = TEME
TIME_SYSTEM    = UTC
MEAN_ELEMENT_THEORY = SGP/SGP4

EPOCH          = 2025-11-26T01:42:26.690400
MEAN_MOTION    = 15.59015960
ECCENTRICITY   = .00046943
INCLINATION    = 51.6292
RA_OF_ASC_NODE = 223.2382
ARG_OF_PERICENTER = 136.9718
MEAN_ANOMALY   = 223.1642

EPHEMERIS_TYPE = 0
CLASSIFICATION_TYPE = U
NORAD_CAT_ID   = 65942
ELEMENT_SET_NO = 999
REV_AT_EPOCH   = 726
BSTAR          = .11748212E-2
MEAN_MOTION_DOT = .93897E-3
MEAN_MOTION_DDOT = 0

CCSDS_OMM_VERS = 2.0
CREATION_DATE  = 
ORIGINATOR     = 

OBJECT_NAME    = E-KAGAKU-1
OBJECT_ID      = 1998-067XQ
CENTER_NAME    = EARTH
REF_FRAME      = TEME
TIME_SYSTEM    = UTC
MEAN_ELEMENT_THEORY = SGP/SGP4

EPOCH          = 2025-11-26T02:24:16.330464
MEAN_MOTION    = 15.56818438
ECCENTRICITY   = .00039139
INCLINATION    = 51.6305
RA_OF_ASC_NODE = 223.4334
ARG_OF_PERICENTER = 118.0377
MEAN_ANOMALY   = 242.1011

EPHEMERIS_TYPE = 0
CLASSIFICATION_TYPE = U
NORAD_CAT_ID   = 65943
ELEMENT_SET_NO = 999
REV_AT_EPOCH   = 726
BSTAR          = .89891055E-3
MEAN_MOTION_DOT = .65773E-3
MEAN_MOTION_DDOT = 0

CCSDS_OMM_VERS = 2.0
CREATION_DATE  = 
ORIGINATOR     = 

OBJECT_NAME    = HRC MONOBLOCK CAMERA
OBJECT_ID      = 1998-067XR
CENTER_NAME    = EARTH
REF_FRAME      = TEME
TIME_SYSTEM    = UTC
MEAN_ELEMENT_THEORY = SGP/SGP4

EPOCH          = 2025-11-26T10:32:14.874720
MEAN_MOTION    = 15.52696422
ECCENTRICITY   = .0004662
INCLINATION    = 51.6297
RA_OF_ASC_NODE = 222.6917
ARG_OF_PERICENTER = 119.7011
MEAN_ANOMALY   = 240.4444

EPHEMERIS_TYPE = 0
CLASSIFICATION_TYPE = U
NORAD_CAT_ID   = 66052
ELEMENT_SET_NO = 999
REV_AT_EPOCH   = 630
BSTAR          = .56311E-3
MEAN_MOTION_DOT = .35084E-3
MEAN_MOTION_DDOT = 0

CCSDS_OMM_VERS = 2.0
CREATION_DATE  = 
ORIGINATOR     = 

OBJECT_NAME    = HTV-X1
OBJECT_ID      = 2025-241A
CENTER_NAME    = EARTH
REF_FRAME      = TEME
TIME_SYSTEM    = UTC
MEAN_ELEMENT_THEORY = SGP/SGP4

EPOCH          = 2025-11-26T05:19:44.164416
MEAN_MOTION    = 15.49091452
ECCENTRICITY   = .00038201
INCLINATION    = 51.6311
RA_OF_ASC_NODE = 224.2419
ARG_OF_PERICENTER = 169.3460
MEAN_ANOMALY   = 190.7610

EPHEMERIS_TYPE = 0
CLASSIFICATION_TYPE = U
NORAD_CAT_ID   = 66174
ELEMENT_SET_NO = 999
REV_AT_EPOCH   = 51
BSTAR          = .20377242E-3
MEAN_MOTION_DOT = .10829E-3
MEAN_MOTION_DDOT = 0

