PROGRESS-MS 32          
1 65586U 25204A   25330.22203894  .00010829  00000+0  20377-3 0  9997
2 65586  51.6311 224.2419 0003820 169.3460 190.7610 15.49091452   278
CYGNUS NG-23            
1 65616U 25208A   25330.22203894  .00010829  00000+0  20377-3 0  9995
2 65616  51.6311 224.2419 0003820 169.3460 190.7610 15.49091452   227
DRAGONFLY               
1 65729U 98067XH  25330.68694126  .00137012  00000+0  12763-2 0  9998
2 65729  51.6260 217.5966 0006227 186.0344 174.0577 15.66389378 10648
1998-067XJ              
1 65730U 98067XJ  25330.09616337  .00989567  44370-3  26464-2 0  9998
2 65730  51.6173 216.5994 0012383 189.8744 170.2022 15.93800834 10602
1998-067XK              
1 65731U 98067XK  25330.69518490  .00089423  00000+0  98665-3 0  9999
2 65731  51.6288 218.4094 0005978 160.1822 199.9405 15.62309161 10632
RSP-03                  
1 65732U 98067XL  25330.78812678  .00108268  00000+0  11025-2 0  9998
2 65732  51.6276 217.5245 0006863 162.7222 197.4007 15.64263891 10669
GHS-01                  
1 65733U 98067XM  25330.72456461  .00163321  00000+0  14166-2 0  9997
2 65733  51.6282 217.1023 0006731 183.7938 176.3009 15.68051207 10666
YOTSUBA-KULOVER         
1 65941U 98067XN  25330.10046908  .00066108  00000+0  90282-3 0  9990
2 65941  51.6301 223.4329 0002409 132.1457 227.9740 15.56841036  7261
BOTAN                   
1 65942U 98067XP  25330.07114225  .00093897  00000+0  11748-2 0  9999
2 65942  51.6292 223.2382 0004694 136.9718 223.1642 15.59015960  7269
E-KAGAKU-1              
1 65943U 98067XQ  25330.10018901  .00065773  00000+0  89891-3 0  9995
2 65943  51.6305 223.4334 0003913 118.0377 242.1011 15.56818438  7268
HRC MONOBLOCK CAMERA    
1 66052U 98067XR  25330.43906105  .00035084  00000+0  56311-3 0  9998
2 66052  51.6297 222.6917 0004662 119.7011 240.4444 15.52696422  6301
HTV-X1                  
1 66174U 25241A   25330.22203894  .00010829  00000+0  20377-3 0  9992
2 66174  51.6311 224.2419 0003820 169.3460 190.7610 15.49091452   519
